<?xml version="1.0" encoding="UTF-8"?>
<ndm xmlns:xsi="http://www.w3.org/2001/XMLSchema-instance" xsi:noNamespaceSchemaLocation="https://sanaregistry.org/r/ndmxml_unqualified/ndmxml-2.0.0-master-2.0.xsd">
<omm id="CCSDS_OMM_VERS" version="2.0">
<header><CREATION_DATE/><ORIGINATOR/></header><body><segment><metadata><OBJECT_NAME>ORBCOMM-X [-]</OBJECT_NAME><OBJECT_ID>1991-050C</OBJECT_ID><CENTER_NAME>EARTH</CENTER_NAME><REF_FRAME>TEME</REF_FRAME><TIME_SYSTEM>UTC</TIME_SYSTEM><MEAN_ELEMENT_THEORY>SGP4</MEAN_ELEMENT_THEORY></metadata><data><meanElements><EPOCH>2023-10-07T17:39:56.790144</EPOCH><MEAN_MOTION>14.42199447</MEAN_MOTION><ECCENTRICITY>.0002604</ECCENTRICITY><INCLINATION>98.4241</INCLINATION><RA_OF_ASC_NODE>346.6719</RA_OF_ASC_NODE><ARG_OF_PERICENTER>244.7001</ARG_OF_PERICENTER><MEAN_ANOMALY>115.3919</MEAN_ANOMALY></meanElements><tleParameters><EPHEMERIS_TYPE>0</EPHEMERIS_TYPE><CLASSIFICATION_TYPE>U</CLASSIFICATION_TYPE><NORAD_CAT_ID>21576</NORAD_CAT_ID><ELEMENT_SET_NO>999</ELEMENT_SET_NO><REV_AT_EPOCH>69294</REV_AT_EPOCH><BSTAR>.24275E-3</BSTAR><MEAN_MOTION_DOT>.756E-5</MEAN_MOTION_DOT><MEAN_MOTION_DDOT>0</MEAN_MOTION_DDOT></tleParameters></data></segment></body></omm>
<omm id="CCSDS_OMM_VERS" version="2.0">
<header><CREATION_DATE/><ORIGINATOR/></header><body><segment><metadata><OBJECT_NAME>ORBCOMM FM01 [-]</OBJECT_NAME><OBJECT_ID>1995-017A</OBJECT_ID><CENTER_NAME>EARTH</CENTER_NAME><REF_FRAME>TEME</REF_FRAME><TIME_SYSTEM>UTC</TIME_SYSTEM><MEAN_ELEMENT_THEORY>SGP4</MEAN_ELEMENT_THEORY></metadata><data><meanElements><EPOCH>2023-10-08T01:08:05.441280</EPOCH><MEAN_MOTION>14.76718872</MEAN_MOTION><ECCENTRICITY>.0005919</ECCENTRICITY><INCLINATION>69.9684</INCLINATION><RA_OF_ASC_NODE>157.6633</RA_OF_ASC_NODE><ARG_OF_PERICENTER>204.0040</ARG_OF_PERICENTER><MEAN_ANOMALY>156.0833</MEAN_ANOMALY></meanElements><tleParameters><EPHEMERIS_TYPE>0</EPHEMERIS_TYPE><CLASSIFICATION_TYPE>U</CLASSIFICATION_TYPE><NORAD_CAT_ID>23545</NORAD_CAT_ID><ELEMENT_SET_NO>999</ELEMENT_SET_NO><REV_AT_EPOCH>52123</REV_AT_EPOCH><BSTAR>.10322E-2</BSTAR><MEAN_MOTION_DOT>.7171E-4</MEAN_MOTION_DOT><MEAN_MOTION_DDOT>0</MEAN_MOTION_DDOT></tleParameters></data></segment></body></omm>
<omm id="CCSDS_OMM_VERS" version="2.0">
<header><CREATION_DATE/><ORIGINATOR/></header><body><segment><metadata><OBJECT_NAME>ORBCOMM FM02 [-]</OBJECT_NAME><OBJECT_ID>1995-017B</OBJECT_ID><CENTER_NAME>EARTH</CENTER_NAME><REF_FRAME>TEME</REF_FRAME><TIME_SYSTEM>UTC</TIME_SYSTEM><MEAN_ELEMENT_THEORY>SGP4</MEAN_ELEMENT_THEORY></metadata><data><meanElements><EPOCH>2023-10-07T21:06:52.343136</EPOCH><MEAN_MOTION>14.76228978</MEAN_MOTION><ECCENTRICITY>.000726</ECCENTRICITY><INCLINATION>69.9705</INCLINATION><RA_OF_ASC_NODE>177.1010</RA_OF_ASC_NODE><ARG_OF_PERICENTER>190.9832</ARG_OF_PERICENTER><MEAN_ANOMALY>169.1159</MEAN_ANOMALY></meanElements><tleParameters><EPHEMERIS_TYPE>0</EPHEMERIS_TYPE><CLASSIFICATION_TYPE>U</CLASSIFICATION_TYPE><NORAD_CAT_ID>23546</NORAD_CAT_ID><ELEMENT_SET_NO>999</ELEMENT_SET_NO><REV_AT_EPOCH>52081</REV_AT_EPOCH><BSTAR>.11079E-2</BSTAR><MEAN_MOTION_DOT>.7615E-4</MEAN_MOTION_DOT><MEAN_MOTION_DDOT>0</MEAN_MOTION_DDOT></tleParameters></data></segment></body></omm>
<omm id="CCSDS_OMM_VERS" version="2.0">
<header><CREATION_DATE/><ORIGINATOR/></header><body><segment><metadata><OBJECT_NAME>ORBCOMM FM08 [-]</OBJECT_NAME><OBJECT_ID>1997-084A</OBJECT_ID><CENTER_NAME>EARTH</CENTER_NAME><REF_FRAME>TEME</REF_FRAME><TIME_SYSTEM>UTC</TIME_SYSTEM><MEAN_ELEMENT_THEORY>SGP4</MEAN_ELEMENT_THEORY></metadata><data><meanElements><EPOCH>2023-10-07T18:43:49.142496</EPOCH><MEAN_MOTION>14.41333897</MEAN_MOTION><ECCENTRICITY>.0006545</ECCENTRICITY><INCLINATION>45.0138</INCLINATION><RA_OF_ASC_NODE>85.1609</RA_OF_ASC_NODE><ARG_OF_PERICENTER>9.8211</ARG_OF_PERICENTER><MEAN_ANOMALY>350.2766</MEAN_ANOMALY></meanElements><tleParameters><EPHEMERIS_TYPE>0</EPHEMERIS_TYPE><CLASSIFICATION_TYPE>U</CLASSIFICATION_TYPE><NORAD_CAT_ID>25112</NORAD_CAT_ID><ELEMENT_SET_NO>999</ELEMENT_SET_NO><REV_AT_EPOCH>35202</REV_AT_EPOCH><BSTAR>.11158E-2</BSTAR><MEAN_MOTION_DOT>.3504E-4</MEAN_MOTION_DOT><MEAN_MOTION_DDOT>0</MEAN_MOTION_DDOT></tleParameters></data></segment></body></omm>
<omm id="CCSDS_OMM_VERS" version="2.0">
<header><CREATION_DATE/><ORIGINATOR/></header><body><segment><metadata><OBJECT_NAME>ORBCOMM FM10 [-]</OBJECT_NAME><OBJECT_ID>1997-084B</OBJECT_ID><CENTER_NAME>EARTH</CENTER_NAME><REF_FRAME>TEME</REF_FRAME><TIME_SYSTEM>UTC</TIME_SYSTEM><MEAN_ELEMENT_THEORY>SGP4</MEAN_ELEMENT_THEORY></metadata><data><meanElements><EPOCH>2023-10-07T18:38:28.935456</EPOCH><MEAN_MOTION>14.41276340</MEAN_MOTION><ECCENTRICITY>.0004277</ECCENTRICITY><INCLINATION>45.0153</INCLINATION><RA_OF_ASC_NODE>86.8931</RA_OF_ASC_NODE><ARG_OF_PERICENTER>335.4113</ARG_OF_PERICENTER><MEAN_ANOMALY>24.6532</MEAN_ANOMALY></meanElements><tleParameters><EPHEMERIS_TYPE>0</EPHEMERIS_TYPE><CLASSIFICATION_TYPE>U</CLASSIFICATION_TYPE><NORAD_CAT_ID>25113</NORAD_CAT_ID><ELEMENT_SET_NO>999</ELEMENT_SET_NO><REV_AT_EPOCH>52717</REV_AT_EPOCH><BSTAR>.10504E-2</BSTAR><MEAN_MOTION_DOT>.3286E-4</MEAN_MOTION_DOT><MEAN_MOTION_DDOT>0</MEAN_MOTION_DDOT></tleParameters></data></segment></body></omm>
<omm id="CCSDS_OMM_VERS" version="2.0">
<header><CREATION_DATE/><ORIGINATOR/></header><body><segment><metadata><OBJECT_NAME>ORBCOMM FM11 [+]</OBJECT_NAME><OBJECT_ID>1997-084C</OBJECT_ID><CENTER_NAME>EARTH</CENTER_NAME><REF_FRAME>TEME</REF_FRAME><TIME_SYSTEM>UTC</TIME_SYSTEM><MEAN_ELEMENT_THEORY>SGP4</MEAN_ELEMENT_THEORY></metadata><data><meanElements><EPOCH>2023-10-07T18:40:45.914880</EPOCH><MEAN_MOTION>14.41162780</MEAN_MOTION><ECCENTRICITY>.0004984</ECCENTRICITY><INCLINATION>45.0137</INCLINATION><RA_OF_ASC_NODE>86.7913</RA_OF_ASC_NODE><ARG_OF_PERICENTER>335.9508</ARG_OF_PERICENTER><MEAN_ANOMALY>24.1108</MEAN_ANOMALY></meanElements><tleParameters><EPHEMERIS_TYPE>0</EPHEMERIS_TYPE><CLASSIFICATION_TYPE>U</CLASSIFICATION_TYPE><NORAD_CAT_ID>25114</NORAD_CAT_ID><ELEMENT_SET_NO>999</ELEMENT_SET_NO><REV_AT_EPOCH>35217</REV_AT_EPOCH><BSTAR>.10702E-2</BSTAR><MEAN_MOTION_DOT>.3342E-4</MEAN_MOTION_DOT><MEAN_MOTION_DDOT>0</MEAN_MOTION_DDOT></tleParameters></data></segment></body></omm>
<omm id="CCSDS_OMM_VERS" version="2.0">
<header><CREATION_DATE/><ORIGINATOR/></header><body><segment><metadata><OBJECT_NAME>ORBCOMM FM12 [-]</OBJECT_NAME><OBJECT_ID>1997-084D</OBJECT_ID><CENTER_NAME>EARTH</CENTER_NAME><REF_FRAME>TEME</REF_FRAME><TIME_SYSTEM>UTC</TIME_SYSTEM><MEAN_ELEMENT_THEORY>SGP4</MEAN_ELEMENT_THEORY></metadata><data><meanElements><EPOCH>2023-10-07T20:57:15.192864</EPOCH><MEAN_MOTION>14.41153551</MEAN_MOTION><ECCENTRICITY>.0004052</ECCENTRICITY><INCLINATION>45.0150</INCLINATION><RA_OF_ASC_NODE>85.9814</RA_OF_ASC_NODE><ARG_OF_PERICENTER>338.4055</ARG_OF_PERICENTER><MEAN_ANOMALY>21.6623</MEAN_ANOMALY></meanElements><tleParameters><EPHEMERIS_TYPE>0</EPHEMERIS_TYPE><CLASSIFICATION_TYPE>U</CLASSIFICATION_TYPE><NORAD_CAT_ID>25115</NORAD_CAT_ID><ELEMENT_SET_NO>999</ELEMENT_SET_NO><REV_AT_EPOCH>35219</REV_AT_EPOCH><BSTAR>.10852E-2</BSTAR><MEAN_MOTION_DOT>.339E-4</MEAN_MOTION_DOT><MEAN_MOTION_DDOT>0</MEAN_MOTION_DDOT></tleParameters></data></segment></body></omm>
<omm id="CCSDS_OMM_VERS" version="2.0">
<header><CREATION_DATE/><ORIGINATOR/></header><body><segment><metadata><OBJECT_NAME>ORBCOMM FM09 [-]</OBJECT_NAME><OBJECT_ID>1997-084E</OBJECT_ID><CENTER_NAME>EARTH</CENTER_NAME><REF_FRAME>TEME</REF_FRAME><TIME_SYSTEM>UTC</TIME_SYSTEM><MEAN_ELEMENT_THEORY>SGP4</MEAN_ELEMENT_THEORY></metadata><data><meanElements><EPOCH>2023-10-07T14:27:40.514400</EPOCH><MEAN_MOTION>14.41133132</MEAN_MOTION><ECCENTRICITY>.0005315</ECCENTRICITY><INCLINATION>45.0150</INCLINATION><RA_OF_ASC_NODE>87.9007</RA_OF_ASC_NODE><ARG_OF_PERICENTER>318.6194</ARG_OF_PERICENTER><MEAN_ANOMALY>41.4253</MEAN_ANOMALY></meanElements><tleParameters><EPHEMERIS_TYPE>0</EPHEMERIS_TYPE><CLASSIFICATION_TYPE>U</CLASSIFICATION_TYPE><NORAD_CAT_ID>25116</NORAD_CAT_ID><ELEMENT_SET_NO>999</ELEMENT_SET_NO><REV_AT_EPOCH>35212</REV_AT_EPOCH><BSTAR>.10301E-2</BSTAR><MEAN_MOTION_DOT>.321E-4</MEAN_MOTION_DOT><MEAN_MOTION_DDOT>0</MEAN_MOTION_DDOT></tleParameters></data></segment></body></omm>

</ndm>
