ORBCOMM-X [-]           
1 21576U 91050C   23280.73607396  .00000756  00000+0  24275-3 0  9992
2 21576  98.4241 346.6719 0002604 244.7001 115.3919 14.42199447692941
ORBCOMM FM01 [-]        
1 23545U 95017A   23281.04728520  .00007171  00000+0  10322-2 0  9990
2 23545  69.9684 157.6633 0005919 204.0040 156.0833 14.76718872521238
ORBCOMM FM02 [-]        
1 23546U 95017B   23280.87977249  .00007615  00000+0  11079-2 0  9998
2 23546  69.9705 177.1010 0007260 190.9832 169.1159 14.76228978520814
ORBCOMM FM08 [-]        
1 25112U 97084A   23280.78042989  .00003504  00000+0  11158-2 0  9990
2 25112  45.0138  85.1609 0006545   9.8211 350.2766 14.41333897352028
ORBCOMM FM10 [-]        
1 25113U 97084B   23280.77672379  .00003286  00000+0  10504-2 0  9993
2 25113  45.0153  86.8931 0004277 335.4113  24.6532 14.41276340527173
ORBCOMM FM11 [+]        
1 25114U 97084C   23280.77830920  .00003342  00000+0  10702-2 0  9995
2 25114  45.0137  86.7913 0004984 335.9508  24.1108 14.41162780352175
ORBCOMM FM12 [-]        
1 25115U 97084D   23280.87309251  .00003390  00000+0  10852-2 0  9994
2 25115  45.0150  85.9814 0004052 338.4055  21.6623 14.41153551352195
ORBCOMM FM09 [-]        
1 25116U 97084E   23280.60255225  .00003210  00000+0  10301-2 0  9997
2 25116  45.0150  87.9007 0005315 318.6194  41.4253 14.41133132352124
